start=new Date('2022-07-28T00:00:00.000Z').valueOf();
sats=[{"SITE":"AFETR","OBJECT_ID":"2022-053AZ","MEAN_MOTION_DOT":"-0.01051950","EPOCH":"2022-07-27T22:00:00.999936","BSTAR":"-0.01089000000000","MEAN_ELEMENT_THEORY":"SGP4","REV_AT_EPOCH":"130","DECAY_DATE":null,"SEMIMAJOR_AXIS":"6746.166","RA_OF_ASC_NODE":"309.0418","REF_FRAME":"TEME","ELEMENT_SET_NO":"999","GP_ID":"209002435","NORAD_CAT_ID":"52703","RCS_SIZE":"LARGE","MEAN_MOTION":"15.66813304","ARG_OF_PERICENTER":"68.7032","TLE_LINE1":"1 52703U 22053AZ  22208.91667824 -.01051950  00000-0 -10890-1 0  9998","PERIOD":"91.906","MEAN_MOTION_DDOT":"0.0000000000000","TIME_SYSTEM":"UTC","TLE_LINE2":"2 52703  53.2173 309.0418 0001038  68.7032 282.5837 15.66813304  1309","ECCENTRICITY":"0.00010380","EPHEMERIS_TYPE":"0","MEAN_ANOMALY":"282.5837","LAUNCH_DATE":"2022-05-18","CENTER_NAME":"EARTH","PERIAPSIS":"367.331","COUNTRY_CODE":"US","OBJECT_TYPE":"PAYLOAD","CLASSIFICATION_TYPE":"U","OBJECT_NAME":"STARLINK-4020","INCLINATION":"53.2173","APOAPSIS":"368.731","FILE":"3523323"},{"PERIAPSIS":"367.428","CLASSIFICATION_TYPE":"U","COUNTRY_CODE":"US","OBJECT_TYPE":"PAYLOAD","OBJECT_NAME":"STARLINK-3999","APOAPSIS":"368.793","INCLINATION":"53.2172","FILE":"3523323","ECCENTRICITY":"0.00010120","TLE_LINE2":"2 52704  53.2172 309.0298 0001012  75.7384 272.8940 15.66785563  1307","MEAN_MOTION_DDOT":"0.0000000000000","TIME_SYSTEM":"UTC","MEAN_ANOMALY":"272.8940","EPHEMERIS_TYPE":"0","CENTER_NAME":"EARTH","LAUNCH_DATE":"2022-05-18","RCS_SIZE":"LARGE","ARG_OF_PERICENTER":"75.7384","MEAN_MOTION":"15.66785563","TLE_LINE1":"1 52704U 22053BA  22208.91667824 -.01051911  00000-0 -10902-1 0  9990","PERIOD":"91.908","EPOCH":"2022-07-27T22:00:00.999936","MEAN_MOTION_DOT":"-0.01051911","OBJECT_ID":"2022-053BA","SITE":"AFETR","DECAY_DATE":null,"MEAN_ELEMENT_THEORY":"SGP4","BSTAR":"-0.01090200000000","REV_AT_EPOCH":"130","REF_FRAME":"TEME","ELEMENT_SET_NO":"999","SEMIMAJOR_AXIS":"6746.245","RA_OF_ASC_NODE":"309.0298","GP_ID":"209001837","NORAD_CAT_ID":"52704"},{"TLE_LINE1":"1 52705U 22053BB  22208.91667824 -.01052239  00000-0 -10896-1 0  9997","PERIOD":"91.907","ARG_OF_PERICENTER":"56.3961","RCS_SIZE":"LARGE","MEAN_MOTION":"15.66806523","RA_OF_ASC_NODE":"309.0386","SEMIMAJOR_AXIS":"6746.185","ELEMENT_SET_NO":"999","REF_FRAME":"TEME","GP_ID":"209001953","NORAD_CAT_ID":"52705","SITE":"AFETR","OBJECT_ID":"2022-053BB","MEAN_MOTION_DOT":"-0.01052239","EPOCH":"2022-07-27T22:00:00.999936","REV_AT_EPOCH":"130","BSTAR":"-0.01089600000000","MEAN_ELEMENT_THEORY":"SGP4","DECAY_DATE":null,"INCLINATION":"53.2173","APOAPSIS":"368.810","FILE":"3523323","COUNTRY_CODE":"US","CLASSIFICATION_TYPE":"U","OBJECT_TYPE":"PAYLOAD","PERIAPSIS":"367.291","OBJECT_NAME":"STARLINK-3844","LAUNCH_DATE":"2022-05-18","CENTER_NAME":"EARTH","TIME_SYSTEM":"UTC","MEAN_MOTION_DDOT":"0.0000000000000","ECCENTRICITY":"0.00011260","TLE_LINE2":"2 52705  53.2173 309.0386 0001126  56.3961 294.2272 15.66806523  1305","EPHEMERIS_TYPE":"0","MEAN_ANOMALY":"294.2272"},{"SITE":"AFETR","EPOCH":"2022-07-27T22:00:00.999936","MEAN_MOTION_DOT":"-0.01047023","OBJECT_ID":"2022-053BC","MEAN_ELEMENT_THEORY":"SGP4","BSTAR":"-0.01083900000000","REV_AT_EPOCH":"130","DECAY_DATE":null,"SEMIMAJOR_AXIS":"6746.214","RA_OF_ASC_NODE":"309.0360","REF_FRAME":"TEME","ELEMENT_SET_NO":"999","GP_ID":"209002075","NORAD_CAT_ID":"52706","RCS_SIZE":"LARGE","ARG_OF_PERICENTER":"1.3539","MEAN_MOTION":"15.66796579","TLE_LINE1":"1 52706U 22053BC  22208.91667824 -.01047023  00000-0 -10839-1 0  9990","PERIOD":"91.907","MEAN_MOTION_DDOT":"0.0000000000000","TIME_SYSTEM":"UTC","ECCENTRICITY":"0.00014520","TLE_LINE2":"2 52706  53.2172 309.0360 0001452   1.3539 348.6069 15.66796579  1307","EPHEMERIS_TYPE":"0","MEAN_ANOMALY":"348.6069","LAUNCH_DATE":"2022-05-18","CENTER_NAME":"EARTH","PERIAPSIS":"367.099","OBJECT_TYPE":"PAYLOAD","COUNTRY_CODE":"US","CLASSIFICATION_TYPE":"U","OBJECT_NAME":"STARLINK-3970","INCLINATION":"53.2172","APOAPSIS":"369.058","FILE":"3523323"},{"LAUNCH_DATE":"2022-05-18","CENTER_NAME":"EARTH","TIME_SYSTEM":"UTC","MEAN_MOTION_DDOT":"0.0000000000000","TLE_LINE2":"2 52707  53.2173 309.0436 0001122  56.6790 295.2714 15.66820283  1303","ECCENTRICITY":"0.00011220","EPHEMERIS_TYPE":"0","MEAN_ANOMALY":"295.2714","INCLINATION":"53.2173","APOAPSIS":"368.768","FILE":"3523323","COUNTRY_CODE":"US","CLASSIFICATION_TYPE":"U","OBJECT_TYPE":"PAYLOAD","PERIAPSIS":"367.254","OBJECT_NAME":"STARLINK-4007","RA_OF_ASC_NODE":"309.0436","SEMIMAJOR_AXIS":"6746.146","REF_FRAME":"TEME","ELEMENT_SET_NO":"999","GP_ID":"209002323","NORAD_CAT_ID":"52707","SITE":"AFETR","EPOCH":"2022-07-27T22:00:00.999936","MEAN_MOTION_DOT":"-0.01052248","OBJECT_ID":"2022-053BD","REV_AT_EPOCH":"130","MEAN_ELEMENT_THEORY":"SGP4","BSTAR":"-0.01089000000000","DECAY_DATE":null,"TLE_LINE1":"1 52707U 22053BD  22208.91667824 -.01052248  00000-0 -10890-1 0  9993","PERIOD":"91.906","RCS_SIZE":"LARGE","ARG_OF_PERICENTER":"56.6790","MEAN_MOTION":"15.66820283"},{"ECCENTRICITY":"0.00010750","TLE_LINE2":"2 52708  53.2173 309.0825 0001075  62.3087 290.3026 15.66828983  1303","TIME_SYSTEM":"UTC","MEAN_MOTION_DDOT":"0.0000000000000","MEAN_ANOMALY":"290.3026","EPHEMERIS_TYPE":"0","CENTER_NAME":"EARTH","LAUNCH_DATE":"2022-05-18","CLASSIFICATION_TYPE":"U","COUNTRY_CODE":"US","OBJECT_TYPE":"PAYLOAD","PERIAPSIS":"367.261","OBJECT_NAME":"STARLINK-3962","APOAPSIS":"368.711","INCLINATION":"53.2173","FILE":"3523323","OBJECT_ID":"2022-053BE","MEAN_MOTION_DOT":"-0.01052046","EPOCH":"2022-07-27T22:00:00.999936","SITE":"AFETR","DECAY_DATE":null,"REV_AT_EPOCH":"130","MEAN_ELEMENT_THEORY":"SGP4","BSTAR":"-0.01088400000000","ELEMENT_SET_NO":"999","REF_FRAME":"TEME","RA_OF_ASC_NODE":"309.0825","SEMIMAJOR_AXIS":"6746.121","NORAD_CAT_ID":"52708","GP_ID":"209002194","MEAN_MOTION":"15.66828983","RCS_SIZE":"LARGE","ARG_OF_PERICENTER":"62.3087","TLE_LINE1":"1 52708U 22053BE  22208.91667824 -.01052046  00000-0 -10884-1 0  9993","PERIOD":"91.905"},{"EPHEMERIS_TYPE":"0","MEAN_ANOMALY":"247.5010","TIME_SYSTEM":"UTC","MEAN_MOTION_DDOT":"0.0000000000000","ECCENTRICITY":"0.00015220","TLE_LINE2":"2 52830  53.2125 206.0791 0001522  77.6896 247.5010 15.49869933  1306","LAUNCH_DATE":"2022-06-17","CENTER_NAME":"EARTH","OBJECT_NAME":"STARLINK-4091","OBJECT_TYPE":"PAYLOAD","COUNTRY_CODE":"US","CLASSIFICATION_TYPE":"U","PERIAPSIS":"416.074","FILE":"3523323","INCLINATION":"53.2125","APOAPSIS":"418.142","REV_AT_EPOCH":"130","BSTAR":"0.00085244000000","MEAN_ELEMENT_THEORY":"SGP4","DECAY_DATE":null,"SITE":"AFETR","MEAN_MOTION_DOT":"0.00048202","EPOCH":"2022-07-27T22:00:00.999936","OBJECT_ID":"2022-062A","GP_ID":"209001965","NORAD_CAT_ID":"52830","RA_OF_ASC_NODE":"206.0791","SEMIMAJOR_AXIS":"6795.243","REF_FRAME":"TEME","ELEMENT_SET_NO":"999","ARG_OF_PERICENTER":"77.6896","RCS_SIZE":"LARGE","MEAN_MOTION":"15.49869933","PERIOD":"92.911","TLE_LINE1":"1 52830U 22062A   22208.91667824  .00048202  00000-0  85244-3 0  9999"},{"BSTAR":"-0.01795000000000","MEAN_ELEMENT_THEORY":"SGP4","REV_AT_EPOCH":"686","DECAY_DATE":null,"SITE":"AFETR","MEAN_MOTION_DOT":"-0.00949748","EPOCH":"2022-07-28T00:00:00.999648","OBJECT_ID":"2022-062B","GP_ID":"208976594","NORAD_CAT_ID":"52831","SEMIMAJOR_AXIS":"6793.883","RA_OF_ASC_NODE":"205.6406","ELEMENT_SET_NO":"999","REF_FRAME":"TEME","ARG_OF_PERICENTER":"57.0205","RCS_SIZE":"LARGE","MEAN_MOTION":"15.50335553","PERIOD":"92.883","TLE_LINE1":"1 52831U 22062B   22209.00001157 -.00949748  00000-0 -17950-1 0  9996","EPHEMERIS_TYPE":"0","MEAN_ANOMALY":"10.8239","MEAN_MOTION_DDOT":"0.0000000000000","TIME_SYSTEM":"UTC","TLE_LINE2":"2 52831  53.2156 205.6406 0001464  57.0205  10.8239 15.50335553  6868","ECCENTRICITY":"0.00014640","LAUNCH_DATE":"2022-06-17","CENTER_NAME":"EARTH","OBJECT_NAME":"STARLINK-4089","PERIAPSIS":"414.753","CLASSIFICATION_TYPE":"U","COUNTRY_CODE":"US","OBJECT_TYPE":"PAYLOAD","FILE":"3523298","INCLINATION":"53.2156","APOAPSIS":"416.742"},{"SITE":"AFETR","MEAN_MOTION_DOT":"-0.00357852","EPOCH":"2022-07-27T22:00:00.999936","OBJECT_ID":"2022-062C","BSTAR":"-0.00655970000000","MEAN_ELEMENT_THEORY":"SGP4","REV_AT_EPOCH":"130","DECAY_DATE":null,"SEMIMAJOR_AXIS":"6794.829","RA_OF_ASC_NODE":"206.0501","ELEMENT_SET_NO":"999","REF_FRAME":"TEME","GP_ID":"209002335","NORAD_CAT_ID":"52832","ARG_OF_PERICENTER":"44.1138","RCS_SIZE":"LARGE","MEAN_MOTION":"15.50011813","TLE_LINE1":"1 52832U 22062C   22208.91667824 -.00357852  00000-0 -65597-2 0  9995","PERIOD":"92.903","MEAN_MOTION_DDOT":"0.0000000000000","TIME_SYSTEM":"UTC","TLE_LINE2":"2 52832  53.2143 206.0501 0001321  44.1138 279.6981 15.50011813  1303","ECCENTRICITY":"0.00013210","EPHEMERIS_TYPE":"0","MEAN_ANOMALY":"279.6981","LAUNCH_DATE":"2022-06-17","CENTER_NAME":"EARTH","PERIAPSIS":"415.796","COUNTRY_CODE":"US","CLASSIFICATION_TYPE":"U","OBJECT_TYPE":"PAYLOAD","OBJECT_NAME":"STARLINK-4083","INCLINATION":"53.2143","APOAPSIS":"417.591","FILE":"3523323"},{"TLE_LINE1":"1 52833U 22062D   22208.91667824  .00047373  00000-0  83880-3 0  9994","PERIOD":"92.913","MEAN_MOTION":"15.49843217","RCS_SIZE":"LARGE","ARG_OF_PERICENTER":"60.2141","RA_OF_ASC_NODE":"206.0640","SEMIMAJOR_AXIS":"6795.321","REF_FRAME":"TEME","ELEMENT_SET_NO":"999","GP_ID":"209002206","NORAD_CAT_ID":"52833","SITE":"AFETR","EPOCH":"2022-07-27T22:00:00.999936","MEAN_MOTION_DOT":"0.00047373","OBJECT_ID":"2022-062D","REV_AT_EPOCH":"130","MEAN_ELEMENT_THEORY":"SGP4","BSTAR":"0.00083880000000","DECAY_DATE":null,"INCLINATION":"53.2139","APOAPSIS":"418.010","FILE":"3523323","COUNTRY_CODE":"US","OBJECT_TYPE":"PAYLOAD","CLASSIFICATION_TYPE":"U","PERIAPSIS":"416.363","OBJECT_NAME":"STARLINK-4086","LAUNCH_DATE":"2022-06-17","CENTER_NAME":"EARTH","TIME_SYSTEM":"UTC","MEAN_MOTION_DDOT":"0.0000000000000","ECCENTRICITY":"0.00012120","TLE_LINE2":"2 52833  53.2139 206.0640 0001212  60.2141 264.5621 15.49843217  1308","EPHEMERIS_TYPE":"0","MEAN_ANOMALY":"264.5621"}];
